start=new Date('2022-03-07T00:00:00.000Z').valueOf();
sats=[{"COUNTRY_CODE":"US","PERIAPSIS":"545.987","MEAN_ANOMALY":"306.5851","GP_ID":"198066013","REF_FRAME":"TEME","REV_AT_EPOCH":"8423","DECAY_DATE":null,"INCLINATION":"53.0547","LAUNCH_DATE":"2020-09-03","CLASSIFICATION_TYPE":"U","EPOCH":"2022-03-06T09:44:48.415488","ARG_OF_PERICENTER":"53.5299","ELEMENT_SET_NO":"999","MEAN_MOTION":"15.06406022","OBJECT_TYPE":"PAYLOAD","OBJECT_ID":"2020-062AS","TLE_LINE1":"1 46365U 20062AS  22065.40611592  .00000450  00000-0  49116-4 0  9991","BSTAR":"0.00004911600000","RA_OF_ASC_NODE":"65.0365","APOAPSIS":"548.403","MEAN_ELEMENT_THEORY":"SGP4","PERIOD":"95.592","EPHEMERIS_TYPE":"0","SEMIMAJOR_AXIS":"6925.330","MEAN_MOTION_DOT":"0.00000450","OBJECT_NAME":"STARLINK-1550","CENTER_NAME":"EARTH","SITE":"AFETR","TIME_SYSTEM":"UTC","TLE_LINE2":"2 46365  53.0547  65.0365 0001744  53.5299 306.5851 15.06406022 84235","RCS_SIZE":"LARGE","ECCENTRICITY":"0.00017440","FILE":"3347638","NORAD_CAT_ID":"46365","MEAN_MOTION_DDOT":"0.0000000000000"},{"ELEMENT_SET_NO":"999","MEAN_MOTION":"15.06403677","ARG_OF_PERICENTER":"60.2629","RA_OF_ASC_NODE":"64.7923","OBJECT_ID":"2020-062AT","OBJECT_TYPE":"PAYLOAD","TLE_LINE1":"1 46366U 20062AT  22065.46141135  .00000301  00000-0  39087-4 0  9990","BSTAR":"0.00003908700000","MEAN_ELEMENT_THEORY":"SGP4","PERIOD":"95.592","EPHEMERIS_TYPE":"0","APOAPSIS":"548.315","SEMIMAJOR_AXIS":"6925.337","MEAN_MOTION_DOT":"0.00000301","OBJECT_NAME":"STARLINK-1651","CENTER_NAME":"EARTH","SITE":"AFETR","TIME_SYSTEM":"UTC","ECCENTRICITY":"0.00016070","FILE":"3347638","TLE_LINE2":"2 46366  53.0543  64.7923 0001607  60.2629 299.8520 15.06403677 84249","RCS_SIZE":"LARGE","MEAN_MOTION_DDOT":"0.0000000000000","NORAD_CAT_ID":"46366","PERIAPSIS":"546.089","MEAN_ANOMALY":"299.8520","COUNTRY_CODE":"US","GP_ID":"198066263","REF_FRAME":"TEME","REV_AT_EPOCH":"8424","DECAY_DATE":null,"CLASSIFICATION_TYPE":"U","LAUNCH_DATE":"2020-09-03","INCLINATION":"53.0543","EPOCH":"2022-03-06T11:04:25.940640"},{"RCS_SIZE":"LARGE","TLE_LINE2":"2 46368  53.0534  88.3103 0001748  58.7096 301.4064 15.06400896 84130","ECCENTRICITY":"0.00017480","FILE":"3347731","NORAD_CAT_ID":"46368","MEAN_MOTION_DDOT":"0.0000000000000","MEAN_MOTION_DOT":"-0.00000089","SITE":"AFETR","TIME_SYSTEM":"UTC","OBJECT_NAME":"STARLINK-1658","CENTER_NAME":"EARTH","APOAPSIS":"548.421","EPHEMERIS_TYPE":"0","MEAN_ELEMENT_THEORY":"SGP4","PERIOD":"95.592","SEMIMAJOR_AXIS":"6925.346","ARG_OF_PERICENTER":"58.7096","MEAN_MOTION":"15.06400896","ELEMENT_SET_NO":"999","TLE_LINE1":"1 46368U 20062AV  22065.79267848 -.00000089  00000-0  12937-4 0  9997","BSTAR":"0.00001293700000","OBJECT_TYPE":"PAYLOAD","OBJECT_ID":"2020-062AV","RA_OF_ASC_NODE":"88.3103","LAUNCH_DATE":"2020-09-03","INCLINATION":"53.0534","CLASSIFICATION_TYPE":"U","EPOCH":"2022-03-06T19:01:27.420672","REV_AT_EPOCH":"8413","REF_FRAME":"TEME","DECAY_DATE":null,"GP_ID":"198072733","COUNTRY_CODE":"US","MEAN_ANOMALY":"301.4064","PERIAPSIS":"546.000"},{"PERIOD":"95.592","MEAN_ELEMENT_THEORY":"SGP4","EPHEMERIS_TYPE":"0","APOAPSIS":"548.626","SEMIMAJOR_AXIS":"6925.351","ELEMENT_SET_NO":"999","MEAN_MOTION":"15.06399295","ARG_OF_PERICENTER":"50.8306","RA_OF_ASC_NODE":"88.4883","OBJECT_ID":"2020-062AX","OBJECT_TYPE":"PAYLOAD","BSTAR":"0.00004638700000","TLE_LINE1":"1 46370U 20062AX  22065.75582082  .00000409  00000-0  46387-4 0  9997","ECCENTRICITY":"0.00020360","FILE":"3347744","TLE_LINE2":"2 46370  53.0551  88.4883 0002036  50.8306 309.2863 15.06399295 84128","RCS_SIZE":"LARGE","MEAN_MOTION_DDOT":"0.0000000000000","NORAD_CAT_ID":"46370","MEAN_MOTION_DOT":"0.00000409","CENTER_NAME":"EARTH","OBJECT_NAME":"STARLINK-1670","SITE":"AFETR","TIME_SYSTEM":"UTC","GP_ID":"198072899","PERIAPSIS":"545.806","MEAN_ANOMALY":"309.2863","COUNTRY_CODE":"US","CLASSIFICATION_TYPE":"U","INCLINATION":"53.0551","LAUNCH_DATE":"2020-09-03","EPOCH":"2022-03-06T18:08:22.918848","REF_FRAME":"TEME","REV_AT_EPOCH":"8412","DECAY_DATE":null},{"CLASSIFICATION_TYPE":"U","INCLINATION":"53.0522","LAUNCH_DATE":"2020-09-03","EPOCH":"2022-03-06T17:57:45.842400","REF_FRAME":"TEME","REV_AT_EPOCH":"8412","DECAY_DATE":null,"GP_ID":"198073611","PERIAPSIS":"545.600","MEAN_ANOMALY":"306.2903","COUNTRY_CODE":"US","ECCENTRICITY":"0.00022560","FILE":"3347757","TLE_LINE2":"2 46371  53.0522  88.4983 0002256  53.8294 306.2903 15.06416590 84121","RCS_SIZE":"LARGE","MEAN_MOTION_DDOT":"0.0000000000000","NORAD_CAT_ID":"46371","MEAN_MOTION_DOT":"0.00003755","OBJECT_NAME":"STARLINK-1688","CENTER_NAME":"EARTH","TIME_SYSTEM":"UTC","SITE":"AFETR","MEAN_ELEMENT_THEORY":"SGP4","PERIOD":"95.591","EPHEMERIS_TYPE":"0","APOAPSIS":"548.725","SEMIMAJOR_AXIS":"6925.298","ELEMENT_SET_NO":"999","MEAN_MOTION":"15.06416590","ARG_OF_PERICENTER":"53.8294","RA_OF_ASC_NODE":"88.4983","OBJECT_TYPE":"PAYLOAD","OBJECT_ID":"2020-062AY","TLE_LINE1":"1 46371U 20062AY  22065.74844725  .00003755  00000-0  27075-3 0  9991","BSTAR":"0.00027075000000"},{"PERIAPSIS":"546.092","MEAN_ANOMALY":"300.3108","COUNTRY_CODE":"US","GP_ID":"198066764","REF_FRAME":"TEME","REV_AT_EPOCH":"8362","DECAY_DATE":null,"CLASSIFICATION_TYPE":"U","INCLINATION":"53.0532","LAUNCH_DATE":"2020-09-03","EPOCH":"2022-03-06T11:48:52.312896","ELEMENT_SET_NO":"999","MEAN_MOTION":"15.06406850","ARG_OF_PERICENTER":"59.8038","RA_OF_ASC_NODE":"109.6481","OBJECT_ID":"2020-062AZ","OBJECT_TYPE":"PAYLOAD","TLE_LINE1":"1 46372U 20062AZ  22065.49227214  .00004076  00000-0  29235-3 0  9999","BSTAR":"0.00029235000000","MEAN_ELEMENT_THEORY":"SGP4","PERIOD":"95.592","EPHEMERIS_TYPE":"0","APOAPSIS":"548.293","SEMIMAJOR_AXIS":"6925.328","MEAN_MOTION_DOT":"0.00004076","OBJECT_NAME":"STARLINK-1689","CENTER_NAME":"EARTH","SITE":"AFETR","TIME_SYSTEM":"UTC","FILE":"3347638","ECCENTRICITY":"0.00015890","TLE_LINE2":"2 46372  53.0532 109.6481 0001589  59.8038 300.3108 15.06406850 83626","RCS_SIZE":"LARGE","MEAN_MOTION_DDOT":"0.0000000000000","NORAD_CAT_ID":"46372"},{"DECAY_DATE":null,"REF_FRAME":"TEME","REV_AT_EPOCH":"8459","EPOCH":"2022-03-06T10:33:14.345568","CLASSIFICATION_TYPE":"U","LAUNCH_DATE":"2020-09-03","INCLINATION":"53.0555","PERIAPSIS":"546.137","MEAN_ANOMALY":"269.2124","COUNTRY_CODE":"US","GP_ID":"198067516","OBJECT_NAME":"STARLINK-1711","CENTER_NAME":"EARTH","TIME_SYSTEM":"UTC","SITE":"AFETR","MEAN_MOTION_DOT":"0.00002408","MEAN_MOTION_DDOT":"0.0000000000000","NORAD_CAT_ID":"46374","FILE":"3347638","ECCENTRICITY":"0.00014660","TLE_LINE2":"2 46374  53.0555  39.8991 0001466  90.9033 269.2124 15.06420098 84596","RCS_SIZE":"LARGE","RA_OF_ASC_NODE":"39.8991","OBJECT_TYPE":"PAYLOAD","OBJECT_ID":"2020-062BB","BSTAR":"0.00018042000000","TLE_LINE1":"1 46374U 20062BB  22065.43974937  .00002408  00000-0  18042-3 0  9997","ELEMENT_SET_NO":"999","MEAN_MOTION":"15.06420098","ARG_OF_PERICENTER":"90.9033","SEMIMAJOR_AXIS":"6925.287","MEAN_ELEMENT_THEORY":"SGP4","PERIOD":"95.591","EPHEMERIS_TYPE":"0","APOAPSIS":"548.167"},{"GP_ID":"198067264","COUNTRY_CODE":"US","PERIAPSIS":"545.778","MEAN_ANOMALY":"308.1315","INCLINATION":"53.0545","LAUNCH_DATE":"2020-09-03","CLASSIFICATION_TYPE":"U","EPOCH":"2022-03-06T09:18:15.329088","REF_FRAME":"TEME","REV_AT_EPOCH":"8423","DECAY_DATE":null,"APOAPSIS":"548.587","MEAN_ELEMENT_THEORY":"SGP4","PERIOD":"95.591","EPHEMERIS_TYPE":"0","SEMIMAJOR_AXIS":"6925.317","ARG_OF_PERICENTER":"51.9857","ELEMENT_SET_NO":"999","MEAN_MOTION":"15.06410237","OBJECT_ID":"2020-062BC","OBJECT_TYPE":"PAYLOAD","TLE_LINE1":"1 46375U 20062BC  22065.38767742  .00000476  00000-0  50857-4 0  9990","BSTAR":"0.00005085700000","RA_OF_ASC_NODE":"65.1163","TLE_LINE2":"2 46375  53.0545  65.1163 0002028  51.9857 308.1315 15.06410237 84235","RCS_SIZE":"LARGE","FILE":"3347638","ECCENTRICITY":"0.00020280","NORAD_CAT_ID":"46375","MEAN_MOTION_DDOT":"0.0000000000000","MEAN_MOTION_DOT":"0.00000476","CENTER_NAME":"EARTH","OBJECT_NAME":"STARLINK-1724","TIME_SYSTEM":"UTC","SITE":"AFETR"},{"GP_ID":"198066014","PERIAPSIS":"545.971","MEAN_ANOMALY":"297.4231","COUNTRY_CODE":"US","CLASSIFICATION_TYPE":"U","LAUNCH_DATE":"2020-09-03","INCLINATION":"53.0560","EPOCH":"2022-03-06T09:39:29.714400","REF_FRAME":"TEME","REV_AT_EPOCH":"8423","DECAY_DATE":null,"PERIOD":"95.592","MEAN_ELEMENT_THEORY":"SGP4","EPHEMERIS_TYPE":"0","APOAPSIS":"548.408","SEMIMAJOR_AXIS":"6925.324","ELEMENT_SET_NO":"999","MEAN_MOTION":"15.06407896","ARG_OF_PERICENTER":"62.6937","RA_OF_ASC_NODE":"65.0556","OBJECT_TYPE":"PAYLOAD","OBJECT_ID":"2020-062BD","TLE_LINE1":"1 46376U 20062BD  22065.40242725  .00001841  00000-0  14246-3 0  9991","BSTAR":"0.00014246000000","ECCENTRICITY":"0.00017600","FILE":"3347638","TLE_LINE2":"2 46376  53.0560  65.0556 0001760  62.6937 297.4231 15.06407896 84232","RCS_SIZE":"LARGE","MEAN_MOTION_DDOT":"0.0000000000000","NORAD_CAT_ID":"46376","MEAN_MOTION_DOT":"0.00001841","OBJECT_NAME":"STARLINK-1742","CENTER_NAME":"EARTH","SITE":"AFETR","TIME_SYSTEM":"UTC"},{"MEAN_MOTION":"15.06398585","ELEMENT_SET_NO":"999","ARG_OF_PERICENTER":"52.2247","RA_OF_ASC_NODE":"88.4201","TLE_LINE1":"1 46380U 20062BH  22065.76688230  .00000493  00000-0  51987-4 0  9996","BSTAR":"0.00005198700000","OBJECT_ID":"2020-062BH","OBJECT_TYPE":"PAYLOAD","EPHEMERIS_TYPE":"0","MEAN_ELEMENT_THEORY":"SGP4","PERIOD":"95.592","APOAPSIS":"548.442","SEMIMAJOR_AXIS":"6925.353","MEAN_MOTION_DOT":"0.00000493","TIME_SYSTEM":"UTC","SITE":"AFETR","OBJECT_NAME":"STARLINK-1758","CENTER_NAME":"EARTH","FILE":"3347811","ECCENTRICITY":"0.00017680","RCS_SIZE":"LARGE","TLE_LINE2":"2 46380  53.0554  88.4201 0001768  52.2247 307.8902 15.06398585 84126","MEAN_MOTION_DDOT":"0.0000000000000","NORAD_CAT_ID":"46380","MEAN_ANOMALY":"307.8902","PERIAPSIS":"545.993","COUNTRY_CODE":"US","GP_ID":"198074064","REV_AT_EPOCH":"8412","REF_FRAME":"TEME","DECAY_DATE":null,"CLASSIFICATION_TYPE":"U","INCLINATION":"53.0554","LAUNCH_DATE":"2020-09-03","EPOCH":"2022-03-06T18:24:18.630720"}];
